      2.10          N: GNSS NAV DATA                        RINEX VERSION / TYPE
fic2rin                                 09/23/2023 00:18:00 PGM / RUN BY / DATE
                                                            END OF HEADER
5  23  9 22  2  0  0.0 -.143632758409D-03 -.147792889038D-11  .000000000000D+00
     .840000000000D+02 -.707812500000D+02  .412195741036D-08  .243278620114D+00
    -.352226197720D-05  .601969507989D-02  .747106969357D-05  .515373198509D+04
     .439200000000D+06 -.169500708580D-06  .124613120273D+01  .521540641785D-07
     .967469120549D+00  .241156250000D+03  .122906120457D+01 -.788961434839D-08
     .188936441390D-09  .100000000000D+01  .228000000000D+04  .000000000000D+00
     .240000000000D+01  .000000000000D+00 -.111758708954D-07  .840000000000D+02
     .432000000000D+06  .400000000000D+01
3  23  9 22  2  0  0.0 -.122108962387D-03  .212594386539D-10  .000000000000D+00
     .570000000000D+02 -.831562500000D+02  .374658463172D-08  .282100801328D+01
    -.421889126301D-05  .511182029732D-02  .841543078423D-05  .515359960365D+04
     .439200000000D+06  .316649675369D-07  .129424656666D+01  .111758708954D-07
     .980436135283D+00  .224718750000D+03  .111226614658D+01 -.760031658369D-08
     .264653881039D-09  .100000000000D+01  .228000000000D+04  .000000000000D+00
     .240000000000D+01  .000000000000D+00  .186264514923D-08  .570000000000D+02
     .432000000000D+06  .400000000000D+01
2  23  9 22  2  0  0.0 -.551129691303D-03  .454747350886D-11  .000000000000D+00
     .151000000000D+03 -.479375000000D+02  .439304013061D-08  .422829234203D+00
    -.253692269325D-05  .159887638874D-01  .470876693726D-05  .515374926949D+04
     .439200000000D+06 -.175088644028D-06  .163727153790D+00 -.197440385818D-06
     .967858499603D+00  .301156250000D+03 -.134342874750D+01 -.845535219936D-08
    -.292869342041D-09  .100000000000D+01  .228000000000D+04  .000000000000D+00
     .240000000000D+01  .000000000000D+00 -.176951289177D-07  .151000000000D+03
     .432000000000D+06  .400000000000D+01
1  23  9 22  2  0  0.0  .164962839335D-03 -.795807864051D-12  .000000000000D+00
     .710000000000D+02 -.620625000000D+02  .367979613542D-08 -.225898119049D+01
    -.303424894810D-05  .128817245131D-01  .457465648651D-05  .515364006424D+04
     .439200000000D+06  .875443220139D-07  .264863142510D+00 -.651925802231D-07
     .990591532651D+00  .306218750000D+03  .993316745687D+00 -.769960643380D-08
    -.100361323309D-09  .100000000000D+01  .228000000000D+04  .000000000000D+00
     .240000000000D+01  .630000000000D+02  .512227416039D-08  .710000000000D+02
     .432000000000D+06  .400000000000D+01
4  23  9 22  2  0  0.0  .162955373526D-03  .110276232590D-10  .000000000000D+00
     .216000000000D+03 -.263125000000D+02  .453376027789D-08 -.432484388196D+00
    -.131689012051D-05  .257281947415D-02  .744871795177D-05  .515361670113D+04
     .439200000000D+06  .726431608200D-07  .237496304011D+01  .335276126862D-07
     .963418054618D+00  .234750000000D+03 -.304684081889D+01 -.795140263641D-08
     .342871424828D-09  .100000000000D+01  .228000000000D+04  .000000000000D+00
     .240000000000D+01  .000000000000D+00 -.419095158577D-08  .472000000000D+03
     .432000000000D+06  .400000000000D+01
23 23  9 22 18  0  0.0  .720466487110D-04  .534328137292D-11  .000000000000D+00
     .148000000000D+03 -.882812500000D+02  .415231581776D-08 -.101911372899D+01
    -.461563467979D-05  .367474590894D-02  .683590769768D-05  .515368255424D+04
     .496800000000D+06  .465661287308D-07  .126339515604D+01 -.558793544769D-07
     .975306926523D+00  .254125000000D+03 -.308866810009D+01 -.785925594098D-08
     .237509893240D-09  .100000000000D+01  .228000000000D+04  .000000000000D+00
     .240000000000D+01  .000000000000D+00 -.838190317154D-08  .660000000000D+03
     .489600000000D+06  .400000000000D+01
2  23  9 22 20  0  0.0 -.550834927708D-03  .454747350886D-11  .000000000000D+00
     .150000000000D+02 -.353125000000D+01  .415838749925D-08 -.269283353290D+01
    -.203028321266D-06  .159921427257D-01  .253878533840D-05  .515375119781D+04
     .504000000000D+06  .176951289177D-06  .163195274813D+00  .139698386192D-06
     .967858154354D+00  .327531250000D+03 -.134293535497D+01 -.785997025645D-08
     .113576159474D-09  .100000000000D+01  .228000000000D+04  .000000000000D+00
     .240000000000D+01  .000000000000D+00 -.176951289177D-07  .150000000000D+02
     .496800000000D+06  .400000000000D+01
1  23  9 22 20  0  0.0  .164910685271D-03 -.795807864051D-12  .000000000000D+00
     .200000000000D+02 -.180000000000D+02  .378944355982D-08  .909500312864D+00
    -.106915831566D-05  .128818997182D-01  .383891165257D-05  .515363734245D+04
     .504000000000D+06 -.128522515297D-06  .264346441307D+00  .335276126862D-07
     .990587598864D+00  .322031250000D+03  .993438886180D+00 -.807462205471D-08
    -.657170230921D-10  .100000000000D+01  .228000000000D+04  .000000000000D+00
     .240000000000D+01  .630000000000D+02  .512227416039D-08  .200000000000D+02
     .496800000000D+06  .400000000000D+01
3  23  9 22 20  0  0.0 -.120732001960D-03  .212594386539D-10  .000000000000D+00
     .710000000000D+02 -.737812500000D+02  .401695303650D-08 -.294026042839D+00
    -.389292836189D-05  .511396094225D-02  .729411840439D-05  .515359908867D+04
     .504000000000D+06  .372529029846D-08  .129374349107D+01  .968575477600D-07
     .980444707983D+00  .256500000000D+03  .111293264913D+01 -.787639951223D-08
     .247510309798D-09  .100000000000D+01  .228000000000D+04  .000000000000D+00
     .340000000000D+01  .000000000000D+00  .186264514923D-08  .710000000000D+02
     .496800000000D+06  .400000000000D+01
7  23  9 22 20  0  0.0  .600414350629D-04 -.104591890704D-10  .000000000000D+00
     .210000000000D+02  .387500000000D+01  .520557397591D-08  .209804317341D+00
     .365078449249D-06  .175550018903D-01  .759959220886D-05  .515371475983D+04
     .504000000000D+06 -.102445483208D-06 -.289469354383D+01  .139698386192D-06
     .950694096408D+00  .228593750000D+03 -.217241721026D+01 -.852142638018D-08
    -.228580949885D-09  .100000000000D+01  .228000000000D+04  .000000000000D+00
     .240000000000D+01  .000000000000D+00 -.111758708954D-07  .210000000000D+02
     .496800000000D+06  .400000000000D+01
5  23  9 22 20  0  0.0 -.143726821989D-03 -.147792889038D-11  .000000000000D+00
     .490000000000D+02 -.950937500000D+02  .419017453759D-08 -.287261884879D+01
    -.519305467606D-05  .602041778620D-02  .744871795177D-05  .515373942757D+04
     .504000000000D+06  .651925802231D-07  .124561723133D+01 -.447034835815D-07
     .967477059806D+00  .236968750000D+03  .122986221073D+01 -.785747015231D-08
     .227866634417D-09  .100000000000D+01  .228000000000D+04  .000000000000D+00
     .240000000000D+01  .000000000000D+00 -.111758708954D-07  .490000000000D+02
     .496800000000D+06  .400000000000D+01
4  23  9 22 20  0  0.0  .163671094924D-03  .110276232590D-10  .000000000000D+00
     .225000000000D+03 -.342500000000D+02  .463555023213D-08  .273516548134D+01
    -.162050127983D-05  .257438153494D-02  .834278762341D-05  .515362206650D+04
     .504000000000D+06 -.100582838058D-06  .237444953539D+01 -.465661287308D-07
     .963433206060D+00  .221562500000D+03 -.304574439690D+01 -.790282918456D-08
     .405016870578D-09  .100000000000D+01  .228000000000D+04  .000000000000D+00
     .240000000000D+01  .000000000000D+00 -.419095158577D-08  .481000000000D+03
     .496800000000D+06  .400000000000D+01
10 23  9 22 20  0  0.0 -.544399954379D-04 -.147792889038D-11  .000000000000D+00
     .740000000000D+02 -.985000000000D+02  .394159275459D-08 -.118431167282D+01
    -.500492751598D-05  .883719988633D-02  .669434666634D-05  .515369132805D+04
     .504000000000D+06  .230967998505D-06  .129113154593D+01  .447034835815D-07
     .980158325677D+00  .256500000000D+03 -.244357378831D+01 -.778532429001D-08
     .226080845746D-09  .100000000000D+01  .228000000000D+04  .000000000000D+00
     .240000000000D+01  .000000000000D+00  .232830643654D-08  .740000000000D+02
     .496800000000D+06  .400000000000D+01
8  23  9 22 20  0  0.0 -.143576879054D-03 -.193267624127D-11  .000000000000D+00
     .830000000000D+02  .812812500000D+02  .441482675240D-08  .305694314305D+01
     .417418777943D-05  .865734997205D-02  .619515776634D-05  .515375585938D+04
     .504000000000D+06 -.782310962677D-07 -.830819778727D+00 -.558793544769D-07
     .956847069870D+00  .258218750000D+03  .270140977896D+00 -.800890503161D-08
    -.764317551180D-10  .100000000000D+01  .228000000000D+04  .000000000000D+00
     .240000000000D+01  .000000000000D+00  .512227416039D-08  .830000000000D+02
     .496800000000D+06  .400000000000D+01
31 23  9 22 20  0  0.0 -.223728828132D-03 -.454747350886D-12  .000000000000D+00
     .570000000000D+02  .884375000000D+01  .499663670140D-08 -.637716701792D+00
     .549480319023D-06  .104824549053D-01  .736862421036D-05  .515361864662D+04
     .504000000000D+06  .113621354103D-06 -.287422080992D+01  .132247805595D-06
     .954747576155D+00  .233750000000D+03  .589311001294D+00 -.815641117584D-08
    -.125362364703D-09  .100000000000D+01  .228000000000D+04  .000000000000D+00
     .240000000000D+01  .000000000000D+00 -.130385160446D-07  .570000000000D+02
     .496800000000D+06  .400000000000D+01
29 23  9 22 20  0  0.0 -.609532464296D-03 -.341060513165D-12  .000000000000D+00
     .440000000000D+02  .937812500000D+02  .406088343781D-08  .297703687520D+01
     .480748713017D-05  .258280127309D-02  .549294054508D-05  .515371367264D+04
     .504000000000D+06  .279396772385D-07 -.725572279226D+00 -.335276126862D-07
     .974874155856D+00  .283781250000D+03  .256342265853D+01 -.793283043423D-08
    -.107147320259D-09  .100000000000D+01  .228000000000D+04  .000000000000D+00
     .240000000000D+01  .000000000000D+00 -.977888703346D-08  .440000000000D+02
     .496800000000D+06  .400000000000D+01
